STARLINK-32527          
1 62319U 24239U   26083.48327127  .00018920  00000+0  64886-3 0  9998
2 62319  53.1599 112.0797 0001374  80.2627 279.8529 15.30221168 71832
STARLINK-32481          
1 62320U 24239V   26083.35897320  .00017263  00000+0  59328-3 0  9997
2 62320  53.1584 112.7269 0001303  82.3960 277.7188 15.30218353 71812
STARLINK-32645          
1 62321U 24239W   26083.36319372  .00018377  00000+0  63144-3 0  9993
2 62321  53.1584 112.7538 0001050  88.3385 271.7736 15.30179917 71813
STARLINK-32654          
1 62322U 24239X   26083.82938782  .00022877  00000+0  78187-3 0  9990
2 62322  53.1584 123.4665 0001238  82.4516 277.6625 15.30210765 71700
STARLINK-11444 [DTC]    
1 62409U 24249A   26083.67320383  .00213180  00000+0  16192-2 0  9998
2 62409  42.9989  77.6539 0001532 331.5977  28.4807 15.70890161 71833
STARLINK-11493 [DTC]    
1 62410U 24249B   26083.93283202  .00176037  00000+0  13351-2 0  9990
2 62410  42.9996  76.1631 0001686 247.5758 112.4931 15.71042387 71879
STARLINK-11453 [DTC]    
1 62411U 24249C   26083.96455860  .00207402  00000+0  15684-2 0  9997
2 62411  43.0009  75.5242 0006271 291.7514  68.2686 15.70994984 71888
STARLINK-11462 [DTC]    
1 62412U 24249D   26083.96986360  .00218688  00000+0  16494-2 0  9990
2 62412  43.0018  75.5631 0003686 268.2848  91.7597 15.71036925 71882
STARLINK-11441 [DTC]    
1 62413U 24249E   26083.69430501  .00193842  00000+0  14754-2 0  9993
2 62413  43.0028  76.9276 0001816 256.8552 103.2113 15.70901088 71841
STARLINK-11445 [DTC]    
1 62414U 24249F   26083.95924402  .00172715  00000+0  13215-2 0  9998
2 62414  42.9983  75.4806 0000479 244.1388 115.9430 15.70843665 71886
STARLINK-11355 [DTC]    
1 62415U 24249G   26083.95393811  .00174248  00000+0  13305-2 0  9996
2 62415  43.0019  75.4284 0001964 248.4131 111.6528 15.70886963 71881
STARLINK-11446 [DTC]    
1 62416U 24249H   26083.68369391  .00221376  00000+0  16793-2 0  9992
2 62416  42.9993  76.8412 0001283 341.3138  18.7683 15.70895331 71847
STARLINK-11428 [DTC]    
1 62417U 24249J   26083.28107642  .00226601  00000+0  17159-2 0  9991
2 62417  43.0005  79.8729 0001526 259.9343 100.1352 15.70921496 71773
STARLINK-11447 [DTC]    
1 62418U 24249K   26083.94331731  .00231881  00000+0  17545-2 0  9998
2 62418  43.0002  75.3493 0001875 245.3140 114.7533 15.70923213 71884
STARLINK-11434 [DTC]    
1 62420U 24249M   26083.28637865  .00082054  00000+0  63526-3 0  9992
2 62420  42.9993  79.9050 0001119 235.0066 125.0697 15.70892778 71772
STARLINK-11461 [DTC]    
1 62421U 24249N   26083.97517460  .00212699  00000+0  16081-2 0  9990
2 62421  42.9993  75.6055 0001598 272.5432  87.5253 15.71001540 71887
