[{"OBJECT_NAME":"STARLINK-32527","OBJECT_ID":"2024-239U","EPOCH":"2026-03-24T11:35:54.637728","MEAN_MOTION":15.30221168,"ECCENTRICITY":0.00013746,"INCLINATION":53.1599,"RA_OF_ASC_NODE":112.0797,"ARG_OF_PERICENTER":80.2627,"MEAN_ANOMALY":279.8529,"EPHEMERIS_TYPE":0,"CLASSIFICATION_TYPE":"U","NORAD_CAT_ID":62319,"ELEMENT_SET_NO":999,"REV_AT_EPOCH":7183,"BSTAR":0.00064885763,"MEAN_MOTION_DOT":0.0001892,"MEAN_MOTION_DDOT":0},{"OBJECT_NAME":"STARLINK-32481","OBJECT_ID":"2024-239V","EPOCH":"2026-03-24T08:36:55.284480","MEAN_MOTION":15.30218353,"ECCENTRICITY":0.00013033,"INCLINATION":53.1584,"RA_OF_ASC_NODE":112.7269,"ARG_OF_PERICENTER":82.396,"MEAN_ANOMALY":277.7188,"EPHEMERIS_TYPE":0,"CLASSIFICATION_TYPE":"U","NORAD_CAT_ID":62320,"ELEMENT_SET_NO":999,"REV_AT_EPOCH":7181,"BSTAR":0.00059328357,"MEAN_MOTION_DOT":0.00017263,"MEAN_MOTION_DDOT":0},{"OBJECT_NAME":"STARLINK-32645","OBJECT_ID":"2024-239W","EPOCH":"2026-03-24T08:42:59.937408","MEAN_MOTION":15.30179917,"ECCENTRICITY":0.00010507,"INCLINATION":53.1584,"RA_OF_ASC_NODE":112.7538,"ARG_OF_PERICENTER":88.3385,"MEAN_ANOMALY":271.7736,"EPHEMERIS_TYPE":0,"CLASSIFICATION_TYPE":"U","NORAD_CAT_ID":62321,"ELEMENT_SET_NO":999,"REV_AT_EPOCH":7181,"BSTAR":0.00063144349,"MEAN_MOTION_DOT":0.00018377,"MEAN_MOTION_DDOT":0},{"OBJECT_NAME":"STARLINK-32654","OBJECT_ID":"2024-239X","EPOCH":"2026-03-24T19:54:19.107648","MEAN_MOTION":15.30210765,"ECCENTRICITY":0.00012385,"INCLINATION":53.1584,"RA_OF_ASC_NODE":123.4665,"ARG_OF_PERICENTER":82.4516,"MEAN_ANOMALY":277.6625,"EPHEMERIS_TYPE":0,"CLASSIFICATION_TYPE":"U","NORAD_CAT_ID":62322,"ELEMENT_SET_NO":999,"REV_AT_EPOCH":7170,"BSTAR":0.00078187455,"MEAN_MOTION_DOT":0.00022877,"MEAN_MOTION_DDOT":0},{"OBJECT_NAME":"STARLINK-11444 [DTC]","OBJECT_ID":"2024-249A","EPOCH":"2026-03-24T16:09:24.810912","MEAN_MOTION":15.70890161,"ECCENTRICITY":0.0001532,"INCLINATION":42.9989,"RA_OF_ASC_NODE":77.6539,"ARG_OF_PERICENTER":331.5977,"MEAN_ANOMALY":28.4807,"EPHEMERIS_TYPE":0,"CLASSIFICATION_TYPE":"U","NORAD_CAT_ID":62409,"ELEMENT_SET_NO":999,"REV_AT_EPOCH":7183,"BSTAR":0.0016191896,"MEAN_MOTION_DOT":0.0021318,"MEAN_MOTION_DDOT":0},{"OBJECT_NAME":"STARLINK-11493 [DTC]","OBJECT_ID":"2024-249B","EPOCH":"2026-03-24T22:23:16.686528","MEAN_MOTION":15.71042387,"ECCENTRICITY":0.00016863,"INCLINATION":42.9996,"RA_OF_ASC_NODE":76.1631,"ARG_OF_PERICENTER":247.5758,"MEAN_ANOMALY":112.4931,"EPHEMERIS_TYPE":0,"CLASSIFICATION_TYPE":"U","NORAD_CAT_ID":62410,"ELEMENT_SET_NO":999,"REV_AT_EPOCH":7187,"BSTAR":0.0013351372,"MEAN_MOTION_DOT":0.00176037,"MEAN_MOTION_DDOT":0},{"OBJECT_NAME":"STARLINK-11453 [DTC]","OBJECT_ID":"2024-249C","EPOCH":"2026-03-24T23:08:57.863040","MEAN_MOTION":15.70994984,"ECCENTRICITY":0.00062717,"INCLINATION":43.0009,"RA_OF_ASC_NODE":75.5242,"ARG_OF_PERICENTER":291.7514,"MEAN_ANOMALY":68.2686,"EPHEMERIS_TYPE":0,"CLASSIFICATION_TYPE":"U","NORAD_CAT_ID":62411,"ELEMENT_SET_NO":999,"REV_AT_EPOCH":7188,"BSTAR":0.0015683851,"MEAN_MOTION_DOT":0.00207402,"MEAN_MOTION_DDOT":0},{"OBJECT_NAME":"STARLINK-11462 [DTC]","OBJECT_ID":"2024-249D","EPOCH":"2026-03-24T23:16:36.215040","MEAN_MOTION":15.71036925,"ECCENTRICITY":0.00036868,"INCLINATION":43.0018,"RA_OF_ASC_NODE":75.5631,"ARG_OF_PERICENTER":268.2848,"MEAN_ANOMALY":91.7597,"EPHEMERIS_TYPE":0,"CLASSIFICATION_TYPE":"U","NORAD_CAT_ID":62412,"ELEMENT_SET_NO":999,"REV_AT_EPOCH":7188,"BSTAR":0.0016493662,"MEAN_MOTION_DOT":0.00218688,"MEAN_MOTION_DDOT":0},{"OBJECT_NAME":"STARLINK-11441 [DTC]","OBJECT_ID":"2024-249E","EPOCH":"2026-03-24T16:39:47.952864","MEAN_MOTION":15.70901088,"ECCENTRICITY":0.00018164,"INCLINATION":43.0028,"RA_OF_ASC_NODE":76.9276,"ARG_OF_PERICENTER":256.8552,"MEAN_ANOMALY":103.2113,"EPHEMERIS_TYPE":0,"CLASSIFICATION_TYPE":"U","NORAD_CAT_ID":62413,"ELEMENT_SET_NO":999,"REV_AT_EPOCH":7184,"BSTAR":0.0014753943,"MEAN_MOTION_DOT":0.00193842,"MEAN_MOTION_DDOT":0},{"OBJECT_NAME":"STARLINK-11445 [DTC]","OBJECT_ID":"2024-249F","EPOCH":"2026-03-24T23:01:18.683328","MEAN_MOTION":15.70843665,"ECCENTRICITY":4.795e-5,"INCLINATION":42.9983,"RA_OF_ASC_NODE":75.4806,"ARG_OF_PERICENTER":244.1388,"MEAN_ANOMALY":115.943,"EPHEMERIS_TYPE":0,"CLASSIFICATION_TYPE":"U","NORAD_CAT_ID":62414,"ELEMENT_SET_NO":999,"REV_AT_EPOCH":7188,"BSTAR":0.0013215076,"MEAN_MOTION_DOT":0.00172715,"MEAN_MOTION_DDOT":0},{"OBJECT_NAME":"STARLINK-11355 [DTC]","OBJECT_ID":"2024-249G","EPOCH":"2026-03-24T22:53:40.252704","MEAN_MOTION":15.70886963,"ECCENTRICITY":0.0001964,"INCLINATION":43.0019,"RA_OF_ASC_NODE":75.4284,"ARG_OF_PERICENTER":248.4131,"MEAN_ANOMALY":111.6528,"EPHEMERIS_TYPE":0,"CLASSIFICATION_TYPE":"U","NORAD_CAT_ID":62415,"ELEMENT_SET_NO":999,"REV_AT_EPOCH":7188,"BSTAR":0.0013305265,"MEAN_MOTION_DOT":0.00174248,"MEAN_MOTION_DDOT":0},{"OBJECT_NAME":"STARLINK-11446 [DTC]","OBJECT_ID":"2024-249H","EPOCH":"2026-03-24T16:24:31.153824","MEAN_MOTION":15.70895331,"ECCENTRICITY":0.00012835,"INCLINATION":42.9993,"RA_OF_ASC_NODE":76.8412,"ARG_OF_PERICENTER":341.3138,"MEAN_ANOMALY":18.7683,"EPHEMERIS_TYPE":0,"CLASSIFICATION_TYPE":"U","NORAD_CAT_ID":62416,"ELEMENT_SET_NO":999,"REV_AT_EPOCH":7184,"BSTAR":0.00167928,"MEAN_MOTION_DOT":0.00221376,"MEAN_MOTION_DDOT":0},{"OBJECT_NAME":"STARLINK-11428 [DTC]","OBJECT_ID":"2024-249J","EPOCH":"2026-03-24T06:44:45.002688","MEAN_MOTION":15.70921496,"ECCENTRICITY":0.0001526,"INCLINATION":43.0005,"RA_OF_ASC_NODE":79.8729,"ARG_OF_PERICENTER":259.9343,"MEAN_ANOMALY":100.1352,"EPHEMERIS_TYPE":0,"CLASSIFICATION_TYPE":"U","NORAD_CAT_ID":62417,"ELEMENT_SET_NO":999,"REV_AT_EPOCH":7177,"BSTAR":0.0017159,"MEAN_MOTION_DOT":0.00226601,"MEAN_MOTION_DDOT":0},{"OBJECT_NAME":"STARLINK-11447 [DTC]","OBJECT_ID":"2024-249K","EPOCH":"2026-03-24T22:38:22.615584","MEAN_MOTION":15.70923213,"ECCENTRICITY":0.00018759,"INCLINATION":43.0002,"RA_OF_ASC_NODE":75.3493,"ARG_OF_PERICENTER":245.314,"MEAN_ANOMALY":114.7533,"EPHEMERIS_TYPE":0,"CLASSIFICATION_TYPE":"U","NORAD_CAT_ID":62418,"ELEMENT_SET_NO":999,"REV_AT_EPOCH":7188,"BSTAR":0.0017544971,"MEAN_MOTION_DOT":0.00231881,"MEAN_MOTION_DDOT":0},{"OBJECT_NAME":"STARLINK-11434 [DTC]","OBJECT_ID":"2024-249M","EPOCH":"2026-03-24T06:52:23.115360","MEAN_MOTION":15.70892778,"ECCENTRICITY":0.0001119,"INCLINATION":42.9993,"RA_OF_ASC_NODE":79.905,"ARG_OF_PERICENTER":235.0066,"MEAN_ANOMALY":125.0697,"EPHEMERIS_TYPE":0,"CLASSIFICATION_TYPE":"U","NORAD_CAT_ID":62420,"ELEMENT_SET_NO":999,"REV_AT_EPOCH":7177,"BSTAR":0.00063526,"MEAN_MOTION_DOT":0.00082054,"MEAN_MOTION_DDOT":0},{"OBJECT_NAME":"STARLINK-11461 [DTC]","OBJECT_ID":"2024-249N","EPOCH":"2026-03-24T23:24:15.085440","MEAN_MOTION":15.7100154,"ECCENTRICITY":0.00015988,"INCLINATION":42.9993,"RA_OF_ASC_NODE":75.6055,"ARG_OF_PERICENTER":272.5432,"MEAN_ANOMALY":87.5253,"EPHEMERIS_TYPE":0,"CLASSIFICATION_TYPE":"U","NORAD_CAT_ID":62421,"ELEMENT_SET_NO":999,"REV_AT_EPOCH":7188,"BSTAR":0.001608106,"MEAN_MOTION_DOT":0.00212699,"MEAN_MOTION_DDOT":0}]
